{
  "type": "FeatureCollection",
  "features": [
    {
      "type": "Feature",
      "properties": {
        "name": "Porto Alegre",
        "NM_MUNICIP": "Porto Alegre"
      },
      "geometry": {
        "type": "Polygon",
        "coordinates": [
          [
            [
              -51.29,
              -30.0946
            ],
            [
              -51.169999999999995,
              -30.0946
            ],
            [
              -51.169999999999995,
              -29.974600000000002
            ],
            [
              -51.29,
              -29.974600000000002
            ],
            [
              -51.29,
              -30.0946
            ]
          ]
        ]
      }
    },
    {
      "type": "Feature",
      "properties": {
        "name": "Caxias do Sul",
        "NM_MUNICIP": "Caxias do Sul"
      },
      "geometry": {
        "type": "Polygon",
        "coordinates": [
          [
            [
              -51.238400000000006,
              -29.227899999999998
            ],
            [
              -51.1184,
              -29.227899999999998
            ],
            [
              -51.1184,
              -29.1079
            ],
            [
              -51.238400000000006,
              -29.1079
            ],
            [
              -51.238400000000006,
              -29.227899999999998
            ]
          ]
        ]
      }
    },
    {
      "type": "Feature",
      "properties": {
        "name": "Pelotas",
        "NM_MUNICIP": "Pelotas"
      },
      "geometry": {
        "type": "Polygon",
        "coordinates": [
          [
            [
              -52.397000000000006,
              -31.825599999999998
            ],
            [
              -52.277,
              -31.825599999999998
            ],
            [
              -52.277,
              -31.7056
            ],
            [
              -52.397000000000006,
              -31.7056
            ],
            [
              -52.397000000000006,
              -31.825599999999998
            ]
          ]
        ]
      }
    },
    {
      "type": "Feature",
      "properties": {
        "name": "Santa Maria",
        "NM_MUNICIP": "Santa Maria"
      },
      "geometry": {
        "type": "Polygon",
        "coordinates": [
          [
            [
              -53.866800000000005,
              -29.749
            ],
            [
              -53.7468,
              -29.749
            ],
            [
              -53.7468,
              -29.629
            ],
            [
              -53.866800000000005,
              -29.629
            ],
            [
              -53.866800000000005,
              -29.749
            ]
          ]
        ]
      }
    },
    {
      "type": "Feature",
      "properties": {
        "name": "Rio Grande",
        "NM_MUNICIP": "Rio Grande"
      },
      "geometry": {
        "type": "Polygon",
        "coordinates": [
          [
            [
              -49.8691,
              -32.0959
            ],
            [
              -49.7491,
              -32.0959
            ],
            [
              -49.7491,
              -31.9759
            ],
            [
              -49.8691,
              -31.9759
            ],
            [
              -49.8691,
              -32.0959
            ]
          ]
        ]
      }
    }
  ]
}